STARLINK-3574           
1 51874U 22022Y   25278.21152699  .00000697  00000+0  61876-4 0  9995
2 51874  53.2190 347.0927 0001173  84.3866 275.7260 15.08835677199633
STARLINK-3585           
1 51875U 22022Z   25278.18943133  .00011279  00000+0  72510-3 0  9997
2 51875  53.2153 347.1035 0002195  76.4125 283.7111 15.08866477199646
STARLINK-3583           
1 51876U 22022AA  25277.47920073  .00000737  00000+0  64411-4 0  9996
2 51876  53.2177 350.3804 0001511  84.0259 276.0905 15.08840021199538
STARLINK-3556           
1 51877U 22022AB  25278.19036053 -.00000291  00000+0 -16042-6 0  9999
2 51877  53.2172 337.1860 0001436  91.1208 268.9948 15.08840740199779
STARLINK-3575           
1 51878U 22022AC  25278.20048543  .00001521  00000+0  11363-3 0  9992
2 51878  53.2204 347.1406 0001692  95.7046 264.4139 15.08836361199640
STARLINK-3572           
1 51879U 22022AD  25278.18300352  .00002457  00000+0  17240-3 0  9998
2 51879  53.2190 337.2182 0001611  95.6873 264.4303 15.08848027199773
STARLINK-3566           
1 51880U 22022AE  25277.93916781  .00001536  00000+0  11459-3 0  9994
2 51880  53.2183 348.0341 0001724  82.8097 277.3091 15.08842987199603
STARLINK-3504           
1 51881U 22022AF  25277.91070303 -.00000753  00000+0 -29252-4 0  9997
2 51881  53.2167 338.4430 0001704  84.5077 275.6110 15.08823270199789
STARLINK-3570           
1 51882U 22022AG  25278.18763970  .00000590  00000+0  55126-4 0  9993
2 51882  53.2174 337.2058 0001287  89.9055 270.2085 15.08844971199820
STARLINK-3576           
1 51883U 22022AH  25278.18670586  .00002035  00000+0  14589-3 0  9997
2 51883  53.2174 337.3841 0001461  91.9980 268.1179 15.08842764199767
STARLINK-3577           
1 51884U 22022AJ  25276.45708676  .00002346  00000+0  16551-3 0  9994
2 51884  53.2184 344.9656 0001724  97.8815 262.2373 15.08832441199594
STARLINK-3584           
1 51885U 22022AK  25278.16460854  .00005637  00000+0  37194-3 0  9990
2 51885  53.2174 337.3001 0001393  91.3771 268.7381 15.08846293199765
STARLINK-3565           
1 51886U 22022AL  25277.90701368 -.00000060  00000+0  14303-4 0  9994
2 51886  53.2195 338.4579 0001546  93.3813 266.7356 15.08834952199736
STARLINK-3551           
1 51887U 22022AM  25278.16092311  .00000461  00000+0  47073-4 0  9999
2 51887  53.2172 337.3161 0001408  93.4620 266.6534 15.08840110199764
STARLINK-3536           
1 51888U 22022AN  25278.16828543 -.00000417  00000+0 -80931-5 0  9998
2 51888  53.2180 337.2849 0001490  71.9250 288.1904 15.08851763199774
STARLINK-3547           
1 51889U 22022AP  25278.14988360  .00000631  00000+0  57713-4 0  9998
2 51889  53.2188 337.3651 0001499  92.9305 267.1859 15.08838514199762
STARLINK-3549           
1 51891U 22022AR  25278.14620204 -.00000771  00000+0 -30333-4 0  9997
2 51891  53.2180 337.3819 0001711 102.9937 257.1246 15.08847847199817
