[{"OBJECT_NAME":"STARLINK-3574","OBJECT_ID":"2022-022Y","EPOCH":"2025-10-05T05:04:35.931936","MEAN_MOTION":15.08835677,"ECCENTRICITY":0.0001173,"INCLINATION":53.219,"RA_OF_ASC_NODE":347.0927,"ARG_OF_PERICENTER":84.3866,"MEAN_ANOMALY":275.726,"EPHEMERIS_TYPE":0,"CLASSIFICATION_TYPE":"U","NORAD_CAT_ID":51874,"ELEMENT_SET_NO":999,"REV_AT_EPOCH":19963,"BSTAR":6.1876e-5,"MEAN_MOTION_DOT":6.97e-6,"MEAN_MOTION_DDOT":0},{"OBJECT_NAME":"STARLINK-3585","OBJECT_ID":"2022-022Z","EPOCH":"2025-10-05T04:32:46.866912","MEAN_MOTION":15.08866477,"ECCENTRICITY":0.0002195,"INCLINATION":53.2153,"RA_OF_ASC_NODE":347.1035,"ARG_OF_PERICENTER":76.4125,"MEAN_ANOMALY":283.7111,"EPHEMERIS_TYPE":0,"CLASSIFICATION_TYPE":"U","NORAD_CAT_ID":51875,"ELEMENT_SET_NO":999,"REV_AT_EPOCH":19964,"BSTAR":0.0007251,"MEAN_MOTION_DOT":0.00011279,"MEAN_MOTION_DDOT":0},{"OBJECT_NAME":"STARLINK-3583","OBJECT_ID":"2022-022AA","EPOCH":"2025-10-04T11:30:02.943072","MEAN_MOTION":15.08840021,"ECCENTRICITY":0.0001511,"INCLINATION":53.2177,"RA_OF_ASC_NODE":350.3804,"ARG_OF_PERICENTER":84.0259,"MEAN_ANOMALY":276.0905,"EPHEMERIS_TYPE":0,"CLASSIFICATION_TYPE":"U","NORAD_CAT_ID":51876,"ELEMENT_SET_NO":999,"REV_AT_EPOCH":19953,"BSTAR":6.4411e-5,"MEAN_MOTION_DOT":7.37e-6,"MEAN_MOTION_DDOT":0},{"OBJECT_NAME":"STARLINK-3556","OBJECT_ID":"2022-022AB","EPOCH":"2025-10-05T04:34:07.149792","MEAN_MOTION":15.0884074,"ECCENTRICITY":0.0001436,"INCLINATION":53.2172,"RA_OF_ASC_NODE":337.186,"ARG_OF_PERICENTER":91.1208,"MEAN_ANOMALY":268.9948,"EPHEMERIS_TYPE":0,"CLASSIFICATION_TYPE":"U","NORAD_CAT_ID":51877,"ELEMENT_SET_NO":999,"REV_AT_EPOCH":19977,"BSTAR":-1.6042e-7,"MEAN_MOTION_DOT":-2.91e-6,"MEAN_MOTION_DDOT":0},{"OBJECT_NAME":"STARLINK-3575","OBJECT_ID":"2022-022AC","EPOCH":"2025-10-05T04:48:41.941152","MEAN_MOTION":15.08836361,"ECCENTRICITY":0.0001692,"INCLINATION":53.2204,"RA_OF_ASC_NODE":347.1406,"ARG_OF_PERICENTER":95.7046,"MEAN_ANOMALY":264.4139,"EPHEMERIS_TYPE":0,"CLASSIFICATION_TYPE":"U","NORAD_CAT_ID":51878,"ELEMENT_SET_NO":999,"REV_AT_EPOCH":19964,"BSTAR":0.00011363,"MEAN_MOTION_DOT":1.521e-5,"MEAN_MOTION_DDOT":0},{"OBJECT_NAME":"STARLINK-3572","OBJECT_ID":"2022-022AD","EPOCH":"2025-10-05T04:23:31.504128","MEAN_MOTION":15.08848027,"ECCENTRICITY":0.0001611,"INCLINATION":53.219,"RA_OF_ASC_NODE":337.2182,"ARG_OF_PERICENTER":95.6873,"MEAN_ANOMALY":264.4303,"EPHEMERIS_TYPE":0,"CLASSIFICATION_TYPE":"U","NORAD_CAT_ID":51879,"ELEMENT_SET_NO":999,"REV_AT_EPOCH":19977,"BSTAR":0.0001724,"MEAN_MOTION_DOT":2.457e-5,"MEAN_MOTION_DDOT":0},{"OBJECT_NAME":"STARLINK-3566","OBJECT_ID":"2022-022AE","EPOCH":"2025-10-04T22:32:24.098784","MEAN_MOTION":15.08842987,"ECCENTRICITY":0.0001724,"INCLINATION":53.2183,"RA_OF_ASC_NODE":348.0341,"ARG_OF_PERICENTER":82.8097,"MEAN_ANOMALY":277.3091,"EPHEMERIS_TYPE":0,"CLASSIFICATION_TYPE":"U","NORAD_CAT_ID":51880,"ELEMENT_SET_NO":999,"REV_AT_EPOCH":19960,"BSTAR":0.00011459,"MEAN_MOTION_DOT":1.536e-5,"MEAN_MOTION_DDOT":0},{"OBJECT_NAME":"STARLINK-3504","OBJECT_ID":"2022-022AF","EPOCH":"2025-10-04T21:51:24.741792","MEAN_MOTION":15.0882327,"ECCENTRICITY":0.0001704,"INCLINATION":53.2167,"RA_OF_ASC_NODE":338.443,"ARG_OF_PERICENTER":84.5077,"MEAN_ANOMALY":275.611,"EPHEMERIS_TYPE":0,"CLASSIFICATION_TYPE":"U","NORAD_CAT_ID":51881,"ELEMENT_SET_NO":999,"REV_AT_EPOCH":19978,"BSTAR":-2.9252e-5,"MEAN_MOTION_DOT":-7.53e-6,"MEAN_MOTION_DDOT":0},{"OBJECT_NAME":"STARLINK-3570","OBJECT_ID":"2022-022AG","EPOCH":"2025-10-05T04:30:12.070080","MEAN_MOTION":15.08844971,"ECCENTRICITY":0.0001287,"INCLINATION":53.2174,"RA_OF_ASC_NODE":337.2058,"ARG_OF_PERICENTER":89.9055,"MEAN_ANOMALY":270.2085,"EPHEMERIS_TYPE":0,"CLASSIFICATION_TYPE":"U","NORAD_CAT_ID":51882,"ELEMENT_SET_NO":999,"REV_AT_EPOCH":19982,"BSTAR":5.5126e-5,"MEAN_MOTION_DOT":5.9e-6,"MEAN_MOTION_DDOT":0},{"OBJECT_NAME":"STARLINK-3576","OBJECT_ID":"2022-022AH","EPOCH":"2025-10-05T04:28:51.386304","MEAN_MOTION":15.08842764,"ECCENTRICITY":0.0001461,"INCLINATION":53.2174,"RA_OF_ASC_NODE":337.3841,"ARG_OF_PERICENTER":91.998,"MEAN_ANOMALY":268.1179,"EPHEMERIS_TYPE":0,"CLASSIFICATION_TYPE":"U","NORAD_CAT_ID":51883,"ELEMENT_SET_NO":999,"REV_AT_EPOCH":19976,"BSTAR":0.00014589,"MEAN_MOTION_DOT":2.035e-5,"MEAN_MOTION_DDOT":0},{"OBJECT_NAME":"STARLINK-3577","OBJECT_ID":"2022-022AJ","EPOCH":"2025-10-03T10:58:12.296064","MEAN_MOTION":15.08832441,"ECCENTRICITY":0.0001724,"INCLINATION":53.2184,"RA_OF_ASC_NODE":344.9656,"ARG_OF_PERICENTER":97.8815,"MEAN_ANOMALY":262.2373,"EPHEMERIS_TYPE":0,"CLASSIFICATION_TYPE":"U","NORAD_CAT_ID":51884,"ELEMENT_SET_NO":999,"REV_AT_EPOCH":19959,"BSTAR":0.00016550976,"MEAN_MOTION_DOT":2.346e-5,"MEAN_MOTION_DDOT":0},{"OBJECT_NAME":"STARLINK-3584","OBJECT_ID":"2022-022AK","EPOCH":"2025-10-05T03:57:02.177856","MEAN_MOTION":15.08846293,"ECCENTRICITY":0.0001393,"INCLINATION":53.2174,"RA_OF_ASC_NODE":337.3001,"ARG_OF_PERICENTER":91.3771,"MEAN_ANOMALY":268.7381,"EPHEMERIS_TYPE":0,"CLASSIFICATION_TYPE":"U","NORAD_CAT_ID":51885,"ELEMENT_SET_NO":999,"REV_AT_EPOCH":19976,"BSTAR":0.00037194,"MEAN_MOTION_DOT":5.637e-5,"MEAN_MOTION_DDOT":0},{"OBJECT_NAME":"STARLINK-3565","OBJECT_ID":"2022-022AL","EPOCH":"2025-10-04T21:46:05.981952","MEAN_MOTION":15.08834952,"ECCENTRICITY":0.0001546,"INCLINATION":53.2195,"RA_OF_ASC_NODE":338.4579,"ARG_OF_PERICENTER":93.3813,"MEAN_ANOMALY":266.7356,"EPHEMERIS_TYPE":0,"CLASSIFICATION_TYPE":"U","NORAD_CAT_ID":51886,"ELEMENT_SET_NO":999,"REV_AT_EPOCH":19973,"BSTAR":1.4303e-5,"MEAN_MOTION_DOT":-6.0e-7,"MEAN_MOTION_DDOT":0},{"OBJECT_NAME":"STARLINK-3551","OBJECT_ID":"2022-022AM","EPOCH":"2025-10-05T03:51:43.756704","MEAN_MOTION":15.0884011,"ECCENTRICITY":0.0001408,"INCLINATION":53.2172,"RA_OF_ASC_NODE":337.3161,"ARG_OF_PERICENTER":93.462,"MEAN_ANOMALY":266.6534,"EPHEMERIS_TYPE":0,"CLASSIFICATION_TYPE":"U","NORAD_CAT_ID":51887,"ELEMENT_SET_NO":999,"REV_AT_EPOCH":19976,"BSTAR":4.7073e-5,"MEAN_MOTION_DOT":4.61e-6,"MEAN_MOTION_DDOT":0},{"OBJECT_NAME":"STARLINK-3536","OBJECT_ID":"2022-022AN","EPOCH":"2025-10-05T04:02:19.861152","MEAN_MOTION":15.08851763,"ECCENTRICITY":0.000149,"INCLINATION":53.218,"RA_OF_ASC_NODE":337.2849,"ARG_OF_PERICENTER":71.925,"MEAN_ANOMALY":288.1904,"EPHEMERIS_TYPE":0,"CLASSIFICATION_TYPE":"U","NORAD_CAT_ID":51888,"ELEMENT_SET_NO":999,"REV_AT_EPOCH":19977,"BSTAR":-8.0931e-6,"MEAN_MOTION_DOT":-4.17e-6,"MEAN_MOTION_DDOT":0},{"OBJECT_NAME":"STARLINK-3547","OBJECT_ID":"2022-022AP","EPOCH":"2025-10-05T03:35:49.943040","MEAN_MOTION":15.08838514,"ECCENTRICITY":0.0001499,"INCLINATION":53.2188,"RA_OF_ASC_NODE":337.3651,"ARG_OF_PERICENTER":92.9305,"MEAN_ANOMALY":267.1859,"EPHEMERIS_TYPE":0,"CLASSIFICATION_TYPE":"U","NORAD_CAT_ID":51889,"ELEMENT_SET_NO":999,"REV_AT_EPOCH":19976,"BSTAR":5.7713e-5,"MEAN_MOTION_DOT":6.31e-6,"MEAN_MOTION_DDOT":0},{"OBJECT_NAME":"STARLINK-3549","OBJECT_ID":"2022-022AR","EPOCH":"2025-10-05T03:30:31.856256","MEAN_MOTION":15.08847847,"ECCENTRICITY":0.0001711,"INCLINATION":53.218,"RA_OF_ASC_NODE":337.3819,"ARG_OF_PERICENTER":102.9937,"MEAN_ANOMALY":257.1246,"EPHEMERIS_TYPE":0,"CLASSIFICATION_TYPE":"U","NORAD_CAT_ID":51891,"ELEMENT_SET_NO":999,"REV_AT_EPOCH":19981,"BSTAR":-3.0333e-5,"MEAN_MOTION_DOT":-7.71e-6,"MEAN_MOTION_DDOT":0}]
